43249,IRIDIUM 144,2018,100.4,860.0,+,86.39,Active,1,LEO,USA,USA,Commercial/Government,Communications,Falcon,1 43249U 18030A   24096.89263369  .00000046  00000+0  92752-5 0  9990,2 43249  86.3919 265.6796 0002146  90.5085 269.6356 14.34216830315144,14.3421683,0.0002146,LEO
43250,IRIDIUM 149,2018,100.4,860.0,+,86.39,Active,1,LEO,USA,USA,Commercial/Government,Communications,Falcon,1 43250U 18030B   24096.89897554  .00000031  00000+0  40856-5 0  9993,2 43250  86.3917 265.6529 0001995  89.6283 270.5141 14.34216853315168,14.34216853,0.0001995,LEO
43251,IRIDIUM 157,2018,100.4,860.0,+,86.39,Active,1,LEO,USA,USA,Commercial/Government,Communications,Falcon,1 43251U 18030C   24096.91800163  .00000126  00000+0  38101-4 0  9991,2 43251  86.3919 265.6803 0002010  99.4252 260.7171 14.34217469315146,14.34217469,0.000201,LEO
43252,IRIDIUM 140,2018,100.4,860.0,+,86.39,Active,1,LEO,USA,USA,Commercial/Government,Communications,Falcon,1 43252U 18030D   24097.21610465  .00000026  00000+0  22943-5 0  9997,2 43252  86.3919 265.5702 0002307  85.6997 274.4462 14.34217113315248,14.34217113,0.0002307,LEO
43253,IRIDIUM 145,2018,100.4,860.0,+,86.39,Active,1,LEO,USA,USA,Commercial/Government,Communications,Falcon,1 43253U 18030E   24097.20342035  .00000070  00000+0  17804-4 0  9990,2 43253  86.3919 265.5493 0002079  83.5103 276.6330 14.34218105315170,14.34218105,0.0002079,LEO
43254,IRIDIUM 146,2018,100.4,860.0,+,86.39,Active,1,LEO,USA,USA,Commercial/Government,Communications,Falcon,1 43254U 18030F   24096.90531749  .00000117  00000+0  34589-4 0  9990,2 43254  86.3918 265.6892 0002071  84.3696 275.7736 14.34218278315140,14.34218278,0.0002071,LEO
43255,IRIDIUM 148,2018,100.4,860.0,+,86.39,Active,1,LEO,USA,USA,Commercial/Government,Communications,Falcon,1 43255U 18030G   24096.87360470  .00000120  00000+0  35917-4 0  9998,2 43255  86.3920 265.7334 0001770  89.2506 270.8892 14.34218388315179,14.34218388,0.000177,LEO
43256,IRIDIUM 142,2018,100.4,860.0,+,86.39,Active,1,LEO,USA,USA,Commercial/Government,Communications,Falcon,1 43256U 18030H   24096.91165952  .00000068  00000+0  17337-4 0  9999,2 43256  86.3916 265.6356 0001997  85.9800 274.1624 14.34218108315146,14.34218108,0.0001997,LEO
